{
  "type": "FeatureCollection",
  "name": "Sonoma Raceway lap",
  "features": [
    {
      "type": "Feature",
      "properties": {"name": "Sonoma Raceway lap"},
      "geometry": {
        "type": "LineString",
        "coordinates": [
          [-122.4548062, 38.1616230],
          [-122.4547151, 38.1615686],
          [-122.4546209, 38.1615176],
          [-122.4545303, 38.1614627],
          [-122.4544401, 38.1614073],
          [-122.4543499, 38.1613520],
          [-122.4542607, 38.1612956],
          [-122.4541721, 38.1612388],
          [-122.4540810, 38.1611844],
          [-122.4539908, 38.1611291],
          [-122.4538989, 38.1610758],
          [-122.4538108, 38.1610184],
          [-122.4537217, 38.1609619],
          [-122.4536342, 38.1609040],
          [-122.4535491, 38.1608438],
          [-122.4534679, 38.1607804],
          [-122.4533946, 38.1607113],
          [-122.4533209, 38.1606425],
          [-122.4532449, 38.1605752],
          [-122.4531827, 38.1604996],
          [-122.4531338, 38.1604185],
          [-122.4531189, 38.1603292],
          [-122.4530940, 38.1602412],
          [-122.4530590, 38.1601554],
          [-122.4530235, 38.1600696],
          [-122.4529878, 38.1599839],
          [-122.4529526, 38.1598981],
          [-122.4529168, 38.1598125],
          [-122.4528843, 38.1597260],
          [-122.4528520, 38.1596395],
          [-122.4528194, 38.1595531],
          [-122.4527853, 38.1594670],
          [-122.4527505, 38.1593811],
          [-122.4527151, 38.1592953],
          [-122.4526785, 38.1592099],
          [-122.4526408, 38.1591247],
          [-122.4525993, 38.1590407],
          [-122.4525592, 38.1589563],
          [-122.4525116, 38.1588744],
          [-122.4524409, 38.1588039],
          [-122.4523487, 38.1587512],
          [-122.4522389, 38.1587275],
          [-122.4521252, 38.1587265],
          [-122.4520269, 38.1587701],
          [-122.4519486, 38.1588357],
          [-122.4519122, 38.1589191],
          [-122.4519186, 38.1590090],
          [-122.4519428, 38.1590971],
          [-122.4519663, 38.1591852],
          [-122.4519736, 38.1592752],
          [-122.4520050, 38.1593617],
          [-122.4520421, 38.1594470],
          [-122.4520654, 38.1595350],
          [-122.4520771, 38.1596235],
          [-122.4521437, 38.1596964],
          [-122.4521884, 38.1597791],
          [-122.4522271, 38.1598640],
          [-122.4522596, 38.1599505],
          [-122.4522947, 38.1600363],
          [-122.4523284, 38.1601223],
          [-122.4523793, 38.1602029],
          [-122.4523983, 38.1602917],
          [-122.4524250, 38.1603794],
          [-122.4524739, 38.1604606],
          [-122.4525063, 38.1605465],
          [-122.4525351, 38.1606338],
          [-122.4525663, 38.1607205],
          [-122.4526040, 38.1608056],
          [-122.4526435, 38.1608902],
          [-122.4526786, 38.1609761],
          [-122.4527136, 38.1610619],
          [-122.4527492, 38.1611476],
          [-122.4527846, 38.1612334],
          [-122.4528203, 38.1613190],
          [-122.4528564, 38.1614046],
          [-122.4528939, 38.1614898],
          [-122.4529317, 38.1615749],
          [-122.4529710, 38.1616596],
          [-122.4530113, 38.1617440],
          [-122.4530606, 38.1618254],
          [-122.4531269, 38.1618982],
          [-122.4531886, 38.1619718],
          [-122.4532432, 38.1620500],
          [-122.4533206, 38.1621163],
          [-122.4534037, 38.1621781],
          [-122.4534919, 38.1622354],
          [-122.4535855, 38.1622871],
          [-122.4536840, 38.1623326],
          [-122.4537884, 38.1623693],
          [-122.4538968, 38.1623977],
          [-122.4540075, 38.1624199],
          [-122.4541170, 38.1624454],
          [-122.4542141, 38.1624917],
          [-122.4542992, 38.1625519],
          [-122.4543959, 38.1625995],
          [-122.4544970, 38.1626415],
          [-122.4545967, 38.1626853],
          [-122.4546868, 38.1627407],
          [-122.4547704, 38.1628021],
          [-122.4548524, 38.1628649],
          [-122.4549343, 38.1629278],
          [-122.4550153, 38.1629914],
          [-122.4550943, 38.1630565],
          [-122.4551752, 38.1631202],
          [-122.4552609, 38.1631799],
          [-122.4553495, 38.1632368],
          [-122.4554388, 38.1632930],
          [-122.4555269, 38.1633504],
          [-122.4556154, 38.1634075],
          [-122.4557039, 38.1634646],
          [-122.4557917, 38.1635222],
          [-122.4558802, 38.1635793],
          [-122.4559688, 38.1636362],
          [-122.4560591, 38.1636915],
          [-122.4561489, 38.1637472],
          [-122.4562374, 38.1638042],
          [-122.4563258, 38.1638614],
          [-122.4564129, 38.1639197],
          [-122.4565024, 38.1639758],
          [-122.4565936, 38.1640300],
          [-122.4566830, 38.1640861],
          [-122.4567716, 38.1641431],
          [-122.4568599, 38.1642003],
          [-122.4569496, 38.1642562],
          [-122.4570451, 38.1643053],
          [-122.4571522, 38.1643360],
          [-122.4572419, 38.1643913],
          [-122.4573238, 38.1644541],
          [-122.4574058, 38.1645170],
          [-122.4574877, 38.1645798],
          [-122.4575697, 38.1646427],
          [-122.4576542, 38.1647034],
          [-122.4577459, 38.1647571],
          [-122.4578430, 38.1648045],
          [-122.4579435, 38.1648474],
          [-122.4580503, 38.1648791],
          [-122.4581614, 38.1648995],
          [-122.4582754, 38.1649046],
          [-122.4583896, 38.1649073],
          [-122.4585038, 38.1649061],
          [-122.4586181, 38.1649047],
          [-122.4587323, 38.1649039],
          [-122.4588465, 38.1649067],
          [-122.4589601, 38.1649152],
          [-122.4590713, 38.1649353],
          [-122.4591782, 38.1649671],
          [-122.4592792, 38.1650091],
          [-122.4593709, 38.1650627],
          [-122.4594542, 38.1651244],
          [-122.4595338, 38.1651891],
          [-122.4596128, 38.1652543],
          [-122.4596943, 38.1653175],
          [-122.4597763, 38.1653803],
          [-122.4598591, 38.1654424],
          [-122.4599463, 38.1655006],
          [-122.4600361, 38.1655564],
          [-122.4601301, 38.1656076],
          [-122.4602299, 38.1656514],
          [-122.4603363, 38.1656840],
          [-122.4604477, 38.1657036],
          [-122.4605593, 38.1657228],
          [-122.4606666, 38.1657536],
          [-122.4607705, 38.1657911],
          [-122.4608709, 38.1658341],
          [-122.4609680, 38.1658817],
          [-122.4610633, 38.1659314],
          [-122.4611552, 38.1659849],
          [-122.4612459, 38.1660397],
          [-122.4613339, 38.1660973],
          [-122.4614221, 38.1661546],
          [-122.4615086, 38.1662136],
          [-122.4615949, 38.1662727],
          [-122.4616803, 38.1663326],
          [-122.4617669, 38.1663914],
          [-122.4618531, 38.1664505],
          [-122.4619461, 38.1665028],
          [-122.4620456, 38.1665470],
          [-122.4621541, 38.1665740],
          [-122.4622680, 38.1665783],
          [-122.4623772, 38.1665544],
          [-122.4624653, 38.1664975],
          [-122.4625380, 38.1664279],
          [-122.4626061, 38.1663555],
          [-122.4626726, 38.1662822],
          [-122.4627407, 38.1662098],
          [-122.4628084, 38.1661371],
          [-122.4628756, 38.1660642],
          [-122.4629428, 38.1659912],
          [-122.4630101, 38.1659183],
          [-122.4630814, 38.1658479],
          [-122.4631519, 38.1657769],
          [-122.4632205, 38.1657048],
          [-122.4632899, 38.1656332],
          [-122.4633571, 38.1655602],
          [-122.4634203, 38.1654851],
          [-122.4634869, 38.1654119],
          [-122.4635510, 38.1653373],
          [-122.4636174, 38.1652639],
          [-122.4636854, 38.1651914],
          [-122.4637536, 38.1651190],
          [-122.4638216, 38.1650466],
          [-122.4638905, 38.1649746],
          [-122.4639588, 38.1649023],
          [-122.4640259, 38.1648293],
          [-122.4640736, 38.1647481],
          [-122.4640676, 38.1646591],
          [-122.4640162, 38.1645788],
          [-122.4639555, 38.1645024],
          [-122.4638931, 38.1644268],
          [-122.4638302, 38.1643516],
          [-122.4637656, 38.1642772],
          [-122.4637016, 38.1642025],
          [-122.4636399, 38.1641266],
          [-122.4635751, 38.1640522],
          [-122.4635115, 38.1639773],
          [-122.4634471, 38.1639028],
          [-122.4633829, 38.1638282],
          [-122.4633189, 38.1637535],
          [-122.4632542, 38.1636792],
          [-122.4631900, 38.1636046],
          [-122.4631260, 38.1635299],
          [-122.4630619, 38.1634552],
          [-122.4629975, 38.1633807],
          [-122.4629326, 38.1633065],
          [-122.4628670, 38.1632326],
          [-122.4628023, 38.1631583],
          [-122.4627376, 38.1630840],
          [-122.4626738, 38.1630091],
          [-122.4626093, 38.1629347],
          [-122.4625429, 38.1628613],
          [-122.4624665, 38.1627943],
          [-122.4623831, 38.1627327],
          [-122.4622930, 38.1626774],
          [-122.4621907, 38.1626378],
          [-122.4620806, 38.1626143],
          [-122.4619671, 38.1626048],
          [-122.4618529, 38.1626017],
          [-122.4617387, 38.1626030],
          [-122.4616245, 38.1626043],
          [-122.4615102, 38.1626056],
          [-122.4613960, 38.1626069],
          [-122.4612820, 38.1626030],
          [-122.4611709, 38.1625827],
          [-122.4610653, 38.1625485],
          [-122.4609729, 38.1624960],
          [-122.4608909, 38.1624332],
          [-122.4608138, 38.1623666],
          [-122.4607419, 38.1622966],
          [-122.4606770, 38.1622224],
          [-122.4606121, 38.1621482],
          [-122.4605415, 38.1620773],
          [-122.4604707, 38.1620065],
          [-122.4603958, 38.1619384],
          [-122.4603218, 38.1618697],
          [-122.4602465, 38.1618019],
          [-122.4601672, 38.1617370],
          [-122.4600853, 38.1616741],
          [-122.4600033, 38.1616112],
          [-122.4599214, 38.1615484],
          [-122.4598395, 38.1614855],
          [-122.4597556, 38.1614243],
          [-122.4596700, 38.1613645],
          [-122.4595833, 38.1613059],
          [-122.4594940, 38.1612496],
          [-122.4594021, 38.1611961],
          [-122.4593067, 38.1611464],
          [-122.4592106, 38.1610977],
          [-122.4591084, 38.1610577],
          [-122.4589972, 38.1610382],
          [-122.4588831, 38.1610364],
          [-122.4587691, 38.1610411],
          [-122.4586611, 38.1610691],
          [-122.4585680, 38.1611209],
          [-122.4584886, 38.1611857],
          [-122.4584229, 38.1612594],
          [-122.4583710, 38.1613396],
          [-122.4583265, 38.1614227],
          [-122.4582837, 38.1615063],
          [-122.4582346, 38.1615877],
          [-122.4581740, 38.1616641],
          [-122.4580998, 38.1617326],
          [-122.4580202, 38.1617973],
          [-122.4579361, 38.1618583],
          [-122.4578486, 38.1619163],
          [-122.4577576, 38.1619708],
          [-122.4576606, 38.1620183],
          [-122.4575564, 38.1620551],
          [-122.4574476, 38.1620825],
          [-122.4573367, 38.1621040],
          [-122.4572235, 38.1621158],
          [-122.4571094, 38.1621199],
          [-122.4569952, 38.1621212],
          [-122.4568810, 38.1621225],
          [-122.4567668, 38.1621238],
          [-122.4566525, 38.1621237],
          [-122.4565383, 38.1621219],
          [-122.4564241, 38.1621232],
          [-122.4563099, 38.1621245],
          [-122.4561963, 38.1621325],
          [-122.4560828, 38.1621406],
          [-122.4559686, 38.1621419],
          [-122.4558545, 38.1621384],
          [-122.4557431, 38.1621200],
          [-122.4556428, 38.1620780],
          [-122.4555322, 38.1620604],
          [-122.4554364, 38.1620114],
          [-122.4553461, 38.1619561],
          [-122.4552544, 38.1619024],
          [-122.4551673, 38.1618440],
          [-122.4550760, 38.1617898],
          [-122.4549858, 38.1617345],
          [-122.4548967, 38.1616780],
          [-122.4548062, 38.1616230]
        ]
      }
    }
  ]
}
